[
    {
        "Altitude(m)": 717302.7302717614,
        "Argument of Periapsis(deg)": 0.004556048474650827,
        "Eccentricity": 0.0,
        "Inclination(deg)": 45.0,
        "Latitude(deg)": -43.75246537690853,
        "Longitude(deg)": 107.4876792609558,
        "Mean Anomaly(deg)": -77.20491334100767,
        "RAAN(deg)": 279.99569922341675,
        "Satellite Name": "Constellation 1 1249",
        "Satellite Number": 1249,
        "Semi-Major Axis(m)": 7083131.272910544,
        "Time(s)": 76
    },
    {
        "Altitude(m)": 717297.2987260895,
        "Argument of Periapsis(deg)": 0.004615996480896233,
        "Eccentricity": 0.0,
        "Inclination(deg)": 45.0,
        "Latitude(deg)": -43.7393384350956,
        "Longitude(deg)": 107.56519854709559,
        "Mean Anomaly(deg)": -77.1442122007577,
        "RAAN(deg)": 279.99564263425117,
        "Satellite Name": "Constellation 1 1249",
        "Satellite Number": 1249,
        "Semi-Major Axis(m)": 7083131.272910544,
        "Time(s)": 77
    },
    {
        "Altitude(m)": 717291.8429271134,
        "Argument of Periapsis(deg)": 0.004675944487141638,
        "Eccentricity": 0.0,
        "Inclination(deg)": 45.0,
        "Latitude(deg)": -43.726153206921026,
        "Longitude(deg)": 107.64268217689988,
        "Mean Anomaly(deg)": -77.08351106050792,
        "RAAN(deg)": 279.99558604508553,
        "Satellite Name": "Constellation 1 1249",
        "Satellite Number": 1249,
        "Semi-Major Axis(m)": 7083131.272910544,
        "Time(s)": 78
    },
    {
        "Altitude(m)": 717286.362894909,
        "Argument of Periapsis(deg)": 0.004735892493387044,
        "Eccentricity": 0.0,
        "Inclination(deg)": 45.0,
        "Latitude(deg)": -43.712909744088535,
        "Longitude(deg)": 107.72013002473011,
        "Mean Anomaly(deg)": -77.02280992025796,
        "RAAN(deg)": 279.99552945592,
        "Satellite Name": "Constellation 1 1249",
        "Satellite Number": 1249,
        "Semi-Major Axis(m)": 7083131.272910544,
        "Time(s)": 79
    },
    {
        "Altitude(m)": 717280.8586496366,
        "Argument of Periapsis(deg)": 0.004795840499632449,
        "Eccentricity": 0.0,
        "Inclination(deg)": 45.0,
        "Latitude(deg)": -43.69960809847236,
        "Longitude(deg)": 107.79754196547809,
        "Mean Anomaly(deg)": -76.96210878000802,
        "RAAN(deg)": 279.9954728667544,
        "Satellite Name": "Constellation 1 1249",
        "Satellite Number": 1249,
        "Semi-Major Axis(m)": 7083131.272910544,
        "Time(s)": 80
    },
    {
        "Altitude(m)": 717275.3302115477,
        "Argument of Periapsis(deg)": 0.004855788505877855,
        "Eccentricity": 0.0,
        "Inclination(deg)": 45.0,
        "Latitude(deg)": -43.686248322116406,
        "Longitude(deg)": 107.87491787456814,
        "Mean Anomaly(deg)": -76.90140763975816,
        "RAAN(deg)": 279.99541627758884,
        "Satellite Name": "Constellation 1 1249",
        "Satellite Number": 1249,
        "Semi-Major Axis(m)": 7083131.272910544,
        "Time(s)": 81
    },
    {
        "Altitude(m)": 717269.7776009819,
        "Argument of Periapsis(deg)": 0.00491573651212326,
        "Eccentricity": 0.0,
        "Inclination(deg)": 45.0,
        "Latitude(deg)": -43.672830467233176,
        "Longitude(deg)": 107.95225745986129,
        "Mean Anomaly(deg)": -76.84070649950829,
        "RAAN(deg)": 279.9953596884233,
        "Satellite Name": "Constellation 1 1249",
        "Satellite Number": 1249,
        "Semi-Major Axis(m)": 7083131.272910544,
        "Time(s)": 82
    },
    {
        "Altitude(m)": 717264.2008383665,
        "Argument of Periapsis(deg)": 0.004975684518368666,
        "Eccentricity": 0.0,
        "Inclination(deg)": 45.0,
        "Latitude(deg)": -43.65935458620322,
        "Longitude(deg)": 108.0295609340429,
        "Mean Anomaly(deg)": -76.78000535925831,
        "RAAN(deg)": 279.9953030992577,
        "Satellite Name": "Constellation 1 1249",
        "Satellite Number": 1249,
        "Semi-Major Axis(m)": 7083131.272910544,
        "Time(s)": 83
    },
    {
        "Altitude(m)": 717258.5999442223,
        "Argument of Periapsis(deg)": 0.005035632524614072,
        "Eccentricity": 0.0,
        "Inclination(deg)": 45.0,
        "Latitude(deg)": -43.64582073157393,
        "Longitude(deg)": 108.10682800604246,
        "Mean Anomaly(deg)": -76.71930421900845,
        "RAAN(deg)": 279.99524651009216,
        "Satellite Name": "Constellation 1 1249",
        "Satellite Number": 1249,
        "Semi-Major Axis(m)": 7083131.272910544,
        "Time(s)": 84
    },
    {
        "Altitude(m)": 717252.9749391485,
        "Argument of Periapsis(deg)": 0.0050955805308594785,
        "Eccentricity": 0.0,
        "Inclination(deg)": 45.0,
        "Latitude(deg)": -43.63222895605877,
        "Longitude(deg)": 108.18405855342256,
        "Mean Anomaly(deg)": -76.65860307875862,
        "RAAN(deg)": 279.9951899209266,
        "Satellite Name": "Constellation 1 1249",
        "Satellite Number": 1249,
        "Semi-Major Axis(m)": 7083131.272910544,
        "Time(s)": 85
    },
    {
        "Altitude(m)": 717247.3258438443,
        "Argument of Periapsis(deg)": 0.005155528537104883,
        "Eccentricity": 0.0,
        "Inclination(deg)": 45.0,
        "Latitude(deg)": -43.61857931253638,
        "Longitude(deg)": 108.2612524542825,
        "Mean Anomaly(deg)": -76.59790193850866,
        "RAAN(deg)": 279.995133331761,
        "Satellite Name": "Constellation 1 1249",
        "Satellite Number": 1249,
        "Semi-Major Axis(m)": 7083131.272910544,
        "Time(s)": 86
    },
    {
        "Altitude(m)": 717241.6526790902,
        "Argument of Periapsis(deg)": 0.0052154765433502885,
        "Eccentricity": 0.0,
        "Inclination(deg)": 45.0,
        "Latitude(deg)": -43.60487185404978,
        "Longitude(deg)": 108.33840958725868,
        "Mean Anomaly(deg)": -76.53720079825871,
        "RAAN(deg)": 279.9950767425955,
        "Satellite Name": "Constellation 1 1249",
        "Satellite Number": 1249,
        "Semi-Major Axis(m)": 7083131.272910544,
        "Time(s)": 87
    },
    {
        "Altitude(m)": 717235.9554657459,
        "Argument of Periapsis(deg)": 0.005275424549595694,
        "Eccentricity": 0.0,
        "Inclination(deg)": 45.0,
        "Latitude(deg)": -43.59110663380536,
        "Longitude(deg)": 108.41552983152563,
        "Mean Anomaly(deg)": -76.4764996580089,
        "RAAN(deg)": 279.99502015342983,
        "Satellite Name": "Constellation 1 1249",
        "Satellite Number": 1249,
        "Semi-Major Axis(m)": 7083131.272910544,
        "Time(s)": 88
    },
    {
        "Altitude(m)": 717230.2342247803,
        "Argument of Periapsis(deg)": 0.0053353725558411,
        "Eccentricity": 0.0,
        "Inclination(deg)": 45.0,
        "Latitude(deg)": -43.57728370517191,
        "Longitude(deg)": 108.49261289870108,
        "Mean Anomaly(deg)": -76.41579851775897,
        "RAAN(deg)": 279.9949635642643,
        "Satellite Name": "Constellation 1 1249",
        "Satellite Number": 1249,
        "Semi-Major Axis(m)": 7083131.272910544,
        "Time(s)": 89
    },
    {
        "Altitude(m)": 717224.4889772312,
        "Argument of Periapsis(deg)": 0.005395320562086505,
        "Eccentricity": 0.0,
        "Inclination(deg)": 45.0,
        "Latitude(deg)": -43.563403121680096,
        "Longitude(deg)": 108.56965900523193,
        "Mean Anomaly(deg)": -76.3550973775091,
        "RAAN(deg)": 279.99490697509873,
        "Satellite Name": "Constellation 1 1249",
        "Satellite Number": 1249,
        "Semi-Major Axis(m)": 7083131.272910544,
        "Time(s)": 90
    },
    {
        "Altitude(m)": 717218.7197442312,
        "Argument of Periapsis(deg)": 0.00545526856833191,
        "Eccentricity": 0.0,
        "Inclination(deg)": 45.0,
        "Latitude(deg)": -43.549464937021064,
        "Longitude(deg)": 108.64666786381598,
        "Mean Anomaly(deg)": -76.29439623725914,
        "RAAN(deg)": 279.99485038593315,
        "Satellite Name": "Constellation 1 1249",
        "Satellite Number": 1249,
        "Semi-Major Axis(m)": 7083131.272910544,
        "Time(s)": 91
    },
    {
        "Altitude(m)": 717212.9265470066,
        "Argument of Periapsis(deg)": 0.005515216574577317,
        "Eccentricity": 0.0,
        "Inclination(deg)": 45.0,
        "Latitude(deg)": -43.53546920504602,
        "Longitude(deg)": 108.72363935578876,
        "Mean Anomaly(deg)": -76.2336950970093,
        "RAAN(deg)": 279.9947937967676,
        "Satellite Name": "Constellation 1 1249",
        "Satellite Number": 1249,
        "Semi-Major Axis(m)": 7083131.272910544,
        "Time(s)": 92
    },
    {
        "Altitude(m)": 717207.1094068591,
        "Argument of Periapsis(deg)": 0.005575164580822722,
        "Eccentricity": 0.0,
        "Inclination(deg)": 45.0,
        "Latitude(deg)": -43.52141597976487,
        "Longitude(deg)": 108.80057336302825,
        "Mean Anomaly(deg)": -76.17299395675934,
        "RAAN(deg)": 279.99473720760204,
        "Satellite Name": "Constellation 1 1249",
        "Satellite Number": 1249,
        "Semi-Major Axis(m)": 7083131.272910544,
        "Time(s)": 93
    },
    {
        "Altitude(m)": 717201.2683451867,
        "Argument of Periapsis(deg)": 0.005635112587068129,
        "Eccentricity": 0.0,
        "Inclination(deg)": 45.0,
        "Latitude(deg)": -43.5073053153458,
        "Longitude(deg)": 108.87746976795466,
        "Mean Anomaly(deg)": -76.11229281650955,
        "RAAN(deg)": 279.99468061843646,
        "Satellite Name": "Constellation 1 1249",
        "Satellite Number": 1249,
        "Semi-Major Axis(m)": 7083131.272910544,
        "Time(s)": 94
    }
]